CCSDS_OMM_VERS = 2.0
CREATION_DATE  = 
ORIGINATOR     = 

OBJECT_NAME    = STARLINK-35917
OBJECT_ID      = 2025-263U
CENTER_NAME    = EARTH
REF_FRAME      = TEME
TIME_SYSTEM    = UTC
MEAN_ELEMENT_THEORY = SGP/SGP4

EPOCH          = 2025-11-29T06:00:02.000160
MEAN_MOTION    = 15.79998552
ECCENTRICITY   = .00019993
INCLINATION    = 42.9980
RA_OF_ASC_NODE = 205.3387
ARG_OF_PERICENTER = 271.3385
MEAN_ANOMALY   = 59.4298

EPHEMERIS_TYPE = 0
CLASSIFICATION_TYPE = U
NORAD_CAT_ID   = 66503
ELEMENT_SET_NO = 999
REV_AT_EPOCH   = 346
BSTAR          = -.10021275E-1
MEAN_MOTION_DOT = -.1702697E-1
MEAN_MOTION_DDOT = 0

CCSDS_OMM_VERS = 2.0
CREATION_DATE  = 
ORIGINATOR     = 

OBJECT_NAME    = STARLINK-35916
OBJECT_ID      = 2025-263V
CENTER_NAME    = EARTH
REF_FRAME      = TEME
TIME_SYSTEM    = UTC
MEAN_ELEMENT_THEORY = SGP/SGP4

EPOCH          = 2025-11-29T20:00:01.999008
MEAN_MOTION    = 15.72340393
ECCENTRICITY   = .0001591
INCLINATION    = 42.9994
RA_OF_ASC_NODE = 201.8941
ARG_OF_PERICENTER = 265.1790
MEAN_ANOMALY   = 100.1920

EPHEMERIS_TYPE = 0
CLASSIFICATION_TYPE = U
NORAD_CAT_ID   = 66504
ELEMENT_SET_NO = 999
REV_AT_EPOCH   = 356
BSTAR          = -.21093E-1
MEAN_MOTION_DOT = -.2520822E-1
MEAN_MOTION_DDOT = 0

CCSDS_OMM_VERS = 2.0
CREATION_DATE  = 
ORIGINATOR     = 

OBJECT_NAME    = STARLINK-34766
OBJECT_ID      = 2025-263W
CENTER_NAME    = EARTH
REF_FRAME      = TEME
TIME_SYSTEM    = UTC
MEAN_ELEMENT_THEORY = SGP/SGP4

EPOCH          = 2025-11-29T20:00:01.999008
MEAN_MOTION    = 15.78261271
ECCENTRICITY   = .000167
INCLINATION    = 42.9982
RA_OF_ASC_NODE = 201.8050
ARG_OF_PERICENTER = 272.0325
MEAN_ANOMALY   = 129.3832

EPHEMERIS_TYPE = 0
CLASSIFICATION_TYPE = U
NORAD_CAT_ID   = 66505
ELEMENT_SET_NO = 999
REV_AT_EPOCH   = 356
BSTAR          = -.11025E-1
MEAN_MOTION_DOT = -.1726107E-1
MEAN_MOTION_DDOT = 0

CCSDS_OMM_VERS = 2.0
CREATION_DATE  = 
ORIGINATOR     = 

OBJECT_NAME    = STARLINK-34765
OBJECT_ID      = 2025-263X
CENTER_NAME    = EARTH
REF_FRAME      = TEME
TIME_SYSTEM    = UTC
MEAN_ELEMENT_THEORY = SGP/SGP4

EPOCH          = 2025-11-29T20:00:01.999008
MEAN_MOTION    = 15.78210390
ECCENTRICITY   = .0001749
INCLINATION    = 42.9983
RA_OF_ASC_NODE = 201.8000
ARG_OF_PERICENTER = 272.7604
MEAN_ANOMALY   = 130.7908

EPHEMERIS_TYPE = 0
CLASSIFICATION_TYPE = U
NORAD_CAT_ID   = 66506
ELEMENT_SET_NO = 999
REV_AT_EPOCH   = 356
BSTAR          = -.1124E-1
MEAN_MOTION_DOT = -.1752194E-1
MEAN_MOTION_DDOT = 0

CCSDS_OMM_VERS = 2.0
CREATION_DATE  = 
ORIGINATOR     = 

OBJECT_NAME    = STARLINK-34767
OBJECT_ID      = 2025-263Y
CENTER_NAME    = EARTH
REF_FRAME      = TEME
TIME_SYSTEM    = UTC
MEAN_ELEMENT_THEORY = SGP/SGP4

EPOCH          = 2025-11-29T20:00:01.999008
MEAN_MOTION    = 15.77921781
ECCENTRICITY   = .0001572
INCLINATION    = 42.9984
RA_OF_ASC_NODE = 201.7877
ARG_OF_PERICENTER = 271.5119
MEAN_ANOMALY   = 136.7998

EPHEMERIS_TYPE = 0
CLASSIFICATION_TYPE = U
NORAD_CAT_ID   = 66507
ELEMENT_SET_NO = 999
REV_AT_EPOCH   = 356
BSTAR          = -.11685E-1
MEAN_MOTION_DOT = -.1791969E-1
MEAN_MOTION_DDOT = 0

CCSDS_OMM_VERS = 2.0
CREATION_DATE  = 
ORIGINATOR     = 

OBJECT_NAME    = STARLINK-35608
OBJECT_ID      = 2025-263Z
CENTER_NAME    = EARTH
REF_FRAME      = TEME
TIME_SYSTEM    = UTC
MEAN_ELEMENT_THEORY = SGP/SGP4

EPOCH          = 2025-11-29T20:00:01.999008
MEAN_MOTION    = 15.77549820
ECCENTRICITY   = .0001585
INCLINATION    = 42.9984
RA_OF_ASC_NODE = 201.7717
ARG_OF_PERICENTER = 266.3285
MEAN_ANOMALY   = 148.5842

EPHEMERIS_TYPE = 0
CLASSIFICATION_TYPE = U
NORAD_CAT_ID   = 66508
ELEMENT_SET_NO = 999
REV_AT_EPOCH   = 356
BSTAR          = -.11054E-1
MEAN_MOTION_DOT = -.1681249E-1
MEAN_MOTION_DDOT = 0

CCSDS_OMM_VERS = 2.0
CREATION_DATE  = 
ORIGINATOR     = 

OBJECT_NAME    = STARLINK-35598
OBJECT_ID      = 2025-263AA
CENTER_NAME    = EARTH
REF_FRAME      = TEME
TIME_SYSTEM    = UTC
MEAN_ELEMENT_THEORY = SGP/SGP4

EPOCH          = 2025-11-29T20:00:01.999008
MEAN_MOTION    = 15.76993288
ECCENTRICITY   = .0001653
INCLINATION    = 42.9984
RA_OF_ASC_NODE = 201.7474
ARG_OF_PERICENTER = 273.3994
MEAN_ANOMALY   = 150.5116

EPHEMERIS_TYPE = 0
CLASSIFICATION_TYPE = U
NORAD_CAT_ID   = 66509
ELEMENT_SET_NO = 999
REV_AT_EPOCH   = 356
BSTAR          = -.12563E-1
MEAN_MOTION_DOT = -.1840417E-1
MEAN_MOTION_DDOT = 0

CCSDS_OMM_VERS = 2.0
CREATION_DATE  = 
ORIGINATOR     = 

OBJECT_NAME    = STARLINK-35600
OBJECT_ID      = 2025-263AB
CENTER_NAME    = EARTH
REF_FRAME      = TEME
TIME_SYSTEM    = UTC
MEAN_ELEMENT_THEORY = SGP/SGP4

EPOCH          = 2025-11-29T20:00:01.999008
MEAN_MOTION    = 15.77375966
ECCENTRICITY   = .0001552
INCLINATION    = 42.9984
RA_OF_ASC_NODE = 201.7645
ARG_OF_PERICENTER = 270.6701
MEAN_ANOMALY   = 146.6050

EPHEMERIS_TYPE = 0
CLASSIFICATION_TYPE = U
NORAD_CAT_ID   = 66510
ELEMENT_SET_NO = 999
REV_AT_EPOCH   = 356
BSTAR          = -.11366E-1
MEAN_MOTION_DOT = -.1711312E-1
MEAN_MOTION_DDOT = 0

CCSDS_OMM_VERS = 2.0
CREATION_DATE  = 
ORIGINATOR     = 

OBJECT_NAME    = STARLINK-35444
OBJECT_ID      = 2025-263AC
CENTER_NAME    = EARTH
REF_FRAME      = TEME
TIME_SYSTEM    = UTC
MEAN_ELEMENT_THEORY = SGP/SGP4

EPOCH          = 2025-11-29T20:00:01.999008
MEAN_MOTION    = 15.77128083
ECCENTRICITY   = .0001682
INCLINATION    = 42.9984
RA_OF_ASC_NODE = 201.7533
ARG_OF_PERICENTER = 260.5845
MEAN_ANOMALY   = 161.1284

EPHEMERIS_TYPE = 0
CLASSIFICATION_TYPE = U
NORAD_CAT_ID   = 66511
ELEMENT_SET_NO = 999
REV_AT_EPOCH   = 356
BSTAR          = -.11871E-1
MEAN_MOTION_DOT = -.1760687E-1
MEAN_MOTION_DDOT = 0

CCSDS_OMM_VERS = 2.0
CREATION_DATE  = 
ORIGINATOR     = 

OBJECT_NAME    = STARLINK-35366
OBJECT_ID      = 2025-263AD
CENTER_NAME    = EARTH
REF_FRAME      = TEME
TIME_SYSTEM    = UTC
MEAN_ELEMENT_THEORY = SGP/SGP4

EPOCH          = 2025-11-29T20:00:01.999008
MEAN_MOTION    = 15.76781080
ECCENTRICITY   = .0001617
INCLINATION    = 42.9982
RA_OF_ASC_NODE = 201.7414
ARG_OF_PERICENTER = 263.3222
MEAN_ANOMALY   = 162.8319

EPHEMERIS_TYPE = 0
CLASSIFICATION_TYPE = U
NORAD_CAT_ID   = 66512
ELEMENT_SET_NO = 999
REV_AT_EPOCH   = 356
BSTAR          = -.1262E-1
MEAN_MOTION_DOT = -.1832301E-1
MEAN_MOTION_DDOT = 0

CCSDS_OMM_VERS = 2.0
CREATION_DATE  = 
ORIGINATOR     = 

OBJECT_NAME    = STARLINK-35692
OBJECT_ID      = 2025-263AE
CENTER_NAME    = EARTH
REF_FRAME      = TEME
TIME_SYSTEM    = UTC
MEAN_ELEMENT_THEORY = SGP/SGP4

EPOCH          = 2025-11-29T20:00:01.999008
MEAN_MOTION    = 15.77231900
ECCENTRICITY   = .0001599
INCLINATION    = 42.9982
RA_OF_ASC_NODE = 201.7585
ARG_OF_PERICENTER = 266.3085
MEAN_ANOMALY   = 153.2566

EPHEMERIS_TYPE = 0
CLASSIFICATION_TYPE = U
NORAD_CAT_ID   = 66513
ELEMENT_SET_NO = 999
REV_AT_EPOCH   = 356
BSTAR          = -.1204E-1
MEAN_MOTION_DOT = -.1789945E-1
MEAN_MOTION_DDOT = 0

CCSDS_OMM_VERS = 2.0
CREATION_DATE  = 
ORIGINATOR     = 

OBJECT_NAME    = SENTINEL-6B
OBJECT_ID      = 2025-264A
CENTER_NAME    = EARTH
REF_FRAME      = TEME
TIME_SYSTEM    = UTC
MEAN_ELEMENT_THEORY = SGP/SGP4

EPOCH          = 2025-11-29T00:19:37.824672
MEAN_MOTION    = 12.85876830
ECCENTRICITY   = .00115103
INCLINATION    = 66.0388
RA_OF_ASC_NODE = 191.1198
ARG_OF_PERICENTER = 269.2732
MEAN_ANOMALY   = 90.6967

EPHEMERIS_TYPE = 0
CLASSIFICATION_TYPE = U
NORAD_CAT_ID   = 66514
ELEMENT_SET_NO = 999
REV_AT_EPOCH   = 152
BSTAR          = .13678171E-3
MEAN_MOTION_DOT = -.28E-6
MEAN_MOTION_DDOT = 0

