STARLINK-35917          
1 66503U 25263U   25333.25002315 -.01702697  00000+0 -10021-1 0  9990
2 66503  42.9980 205.3387 0001999 271.3385  59.4298 15.79998552  3469
STARLINK-35916          
1 66504U 25263V   25333.83335647 -.02520822  00000+0 -21093-1 0  9992
2 66504  42.9994 201.8941 0001591 265.1790 100.1920 15.72340393  3565
STARLINK-34766          
1 66505U 25263W   25333.83335647 -.01726107  00000+0 -11025-1 0  9990
2 66505  42.9982 201.8050 0001670 272.0325 129.3832 15.78261271  3561
STARLINK-34765          
1 66506U 25263X   25333.83335647 -.01752194  00000+0 -11240-1 0  9995
2 66506  42.9983 201.8000 0001749 272.7604 130.7908 15.78210390  3568
STARLINK-34767          
1 66507U 25263Y   25333.83335647 -.01791969  00000+0 -11685-1 0  9992
2 66507  42.9984 201.7877 0001572 271.5119 136.7998 15.77921781  3560
STARLINK-35608          
1 66508U 25263Z   25333.83335647 -.01681249  00000+0 -11054-1 0  9992
2 66508  42.9984 201.7717 0001585 266.3285 148.5842 15.77549820  3563
STARLINK-35598          
1 66509U 25263AA  25333.83335647 -.01840417  00000+0 -12563-1 0  9993
2 66509  42.9984 201.7474 0001653 273.3994 150.5116 15.76993288  3562
STARLINK-35600          
1 66510U 25263AB  25333.83335647 -.01711312  00000+0 -11366-1 0  9996
2 66510  42.9984 201.7645 0001552 270.6701 146.6050 15.77375966  3569
STARLINK-35444          
1 66511U 25263AC  25333.83335647 -.01760687  00000+0 -11871-1 0  9997
2 66511  42.9984 201.7533 0001682 260.5845 161.1284 15.77128083  3564
STARLINK-35366          
1 66512U 25263AD  25333.83335647 -.01832301  00000+0 -12620-1 0  9994
2 66512  42.9982 201.7414 0001617 263.3222 162.8319 15.76781080  3567
STARLINK-35692          
1 66513U 25263AE  25333.83335647 -.01789945  00000+0 -12040-1 0  9996
2 66513  42.9982 201.7585 0001599 266.3085 153.2566 15.77231900  3566
SENTINEL-6B             
1 66514U 25264A   25333.01363223 -.00000028  00000+0  13678-3 0  9995
2 66514  66.0388 191.1198 0011510 269.2732  90.6967 12.85876830  1527
